{
  "norad_id": 43001,
  "name": "BEIDOU-3 M1",
  "history": [
    {
      "epoch": "2026-03-28T01:15:54.969984",
      "apogee_km": 21563.2182247552,
      "perigee_km": 21492.90688061024,
      "latitude_deg": 7.678280359353404,
      "longitude_deg": -74.83892223984003,
      "semi_major_axis_km": 27906.19955268272,
      "eccentricity": 0.00125978,
      "inclination_deg": 56.6237,
      "raan_deg": 65.755,
      "arg_perigee_deg": 313.5526,
      "mean_anomaly_deg": 46.3376,
      "mean_motion_rev_day": 1.8623089
    }
  ]
}